{
  "norad_id": 45697,
  "name": "STARLINK-1351",
  "history": [
    {
      "epoch": "2026-03-28T22:42:56.811168Z",
      "apogee_km": 402.5632414157062,
      "perigee_km": 396.93109078904126,
      "latitude_deg": -2.6230679041175317e-05,
      "longitude_deg": 121.54902726393208,
      "height_km": 402.7821711185132,
      "semi_major_axis_km": 6777.8841661023735,
      "eccentricity": 0.00041548,
      "inclination_deg": 53.0499,
      "raan_deg": 288.6454,
      "arg_perigee_deg": 220.7113,
      "mean_anomaly_deg": 139.3587,
      "mean_motion_rev_day": 15.55827875
    },
    {
      "epoch": "2026-03-29T00:15:26.946720Z",
      "apogee_km": 402.53300231695994,
      "perigee_km": 396.9114458764934,
      "latitude_deg": -4.8088620465094875e-05,
      "longitude_deg": 98.04893055158787,
      "height_km": 402.75159607062244,
      "semi_major_axis_km": 6777.859224096726,
      "eccentricity": 0.0004147,
      "inclination_deg": 53.0493,
      "raan_deg": 288.3342,
      "arg_perigee_deg": 220.7599,
      "mean_anomaly_deg": 139.3101,
      "mean_motion_rev_day": 15.55836463
    },
    {
      "epoch": "2026-03-30T00:55:22.575072Z",
      "apogee_km": 401.9800535142276,
      "perigee_km": 396.2356607733118,
      "latitude_deg": -3.54314576570867e-05,
      "longitude_deg": 82.0784816341398,
      "height_km": 402.11289868804823,
      "semi_major_axis_km": 6777.244857143769,
      "eccentricity": 0.0004238,
      "inclination_deg": 53.0494,
      "raan_deg": 283.3585,
      "arg_perigee_deg": 222.8866,
      "mean_anomaly_deg": 137.1814,
      "mean_motion_rev_day": 15.56048026
    }
  ]
}